OBJECT_NAME,OBJECT_ID,EPOCH,MEAN_MOTION,ECCENTRICITY,INCLINATION,RA_OF_ASC_NODE,ARG_OF_PERICENTER,MEAN_ANOMALY,EPHEMERIS_TYPE,CLASSIFICATION_TYPE,NORAD_CAT_ID,ELEMENT_SET_NO,REV_AT_EPOCH,BSTAR,MEAN_MOTION_DOT,MEAN_MOTION_DDOT
LEMUR-2-ROUNDTRIPPER,2025-009DG,2026-06-30T16:00:33.264288,15.04004026,.00050844,97.7238,264.3280,99.0849,261.0952,0,U,62711,999,7965,.63617432E-3,.8736E-4,0
LEMUR-2-MYNAMEISJEFF,2025-009DH,2026-06-30T15:58:15.751776,15.03997260,.00037707,97.7281,264.7155,128.3768,231.7797,0,U,62712,999,7965,.60504806E-3,.8303E-4,0
LEMUR-2-LEIA-PHILIP,2025-052AN,2026-06-30T15:15:15.366528,14.97348750,.00041789,97.6814,73.3591,162.8593,197.2771,0,U,63246,999,7068,.14441783E-3,.1619E-4,0
LEMUR-2-LIA-MARTIN,2025-052AQ,2026-06-30T23:16:49.333152,14.97909830,.0004446,97.6867,74.1831,127.6600,232.5027,0,U,63248,999,7074,.45442E-3,.5297E-4,0
LEMUR-2-DELOITTE-1,2025-052BB,2026-06-30T22:45:27.476352,14.97695611,.0002638,97.6905,74.4933,69.5725,290.5780,0,U,63259,999,7075,.3176E-3,.3663E-4,0
LEMUR-2-EMERSONROSE,2025-052BD,2026-06-30T23:26:21.633792,14.99179816,.0002396,97.6871,75.1041,78.2574,281.8917,0,U,63261,999,7080,.40156E-3,.4831E-4,0
LEMUR-2-MARACHE-FRAN,2025-052BE,2026-06-30T06:36:41.282784,15.00210472,.0004397,97.6906,74.7579,326.0371,34.0571,0,U,63262,999,7072,.31335519E-3,.386E-4,0
LEMUR-2-THEFALCONER,2025-052BG,2026-06-30T23:26:23.953632,14.97475722,.0001228,97.6843,74.1253,21.5725,338.5549,0,U,63264,999,7075,.37558E-3,.4318E-4,0
LEMUR-2-UNTITLED-SC,2025-061A,2026-07-01T04:05:56.661216,15.13567173,.0017709,97.5642,157.4314,212.0785,147.9370,0,U,63351,999,6970,.21324E-3,.3771E-4,0
LEMUR-2-ESPERANZA,2025-061B,2026-06-30T21:11:01.576032,15.13656922,.001732,97.5648,157.2420,212.3694,147.6476,0,U,63352,999,6966,.23273E-3,.4132E-4,0
LEMUR-2-KREMPEL-BRO2,2025-061C,2026-07-01T04:04:50.331072,15.14097419,.0018464,97.5695,158.0786,203.5396,156.4992,0,U,63353,999,6972,.22643E-3,.4071E-4,0
LEMUR-2-THERMORAPTOR,2025-061D,2026-07-01T05:13:06.675168,15.14181266,.0018231,97.5700,158.2041,202.3147,157.7293,0,U,63354,999,6973,.27535E-3,.4977E-4,0
LEMUR-2-NEUROSPICY,2025-061E,2026-06-30T23:45:18.649152,15.14296100,.0015973,97.5626,157.5933,205.9367,154.1066,0,U,63355,999,6970,.23423E-3,.4233E-4,0
LEMUR-2-TILLINFINITY,2025-061F,2026-07-01T05:13:46.943616,15.14881552,.0017564,97.5614,158.1204,193.3773,166.6996,0,U,63356,999,6976,.267E-3,.4919E-4,0
LEMUR-2-KREMPEL-BRO1,2025-061G,2026-06-30T17:32:15.661248,15.14682929,.00181439,97.5614,157.5480,196.4518,163.6128,0,U,63357,999,6968,.20169268E-3,.3679E-4,0
LEMUR-2-LANGER2SPACE,2025-061H,2026-07-01T00:34:55.442784,15.14380964,.0015902,97.5617,157.6482,204.1968,155.8518,0,U,63358,999,6971,.25226E-3,.4575E-4,0
LEMUR-2-BALTO,2025-052BH,2026-06-30T15:50:55.704480,15.00231322,.00062672,97.6926,75.1140,20.9553,339.1926,0,U,63395,999,7078,.45532865E-3,.5641E-4,0
LEMUR-2-KRISH,2025-135AK,2026-07-01T01:13:38.540064,14.96328215,.0001272,97.7754,296.8324,107.5828,252.5532,0,U,64561,999,5599,.51017E-3,.5714E-4,0
LEMUR-2-HUBBLE-4,2025-135AP,2026-06-30T17:43:00.346080,14.93649063,.0001417,97.7709,295.4832,207.6589,152.4556,0,U,64565,999,5589,.184E-3,.1887E-4,0
LEMUR-2-SEJONG-2,2025-135BL,2026-07-01T03:26:37.416768,14.96815820,.0002689,97.7715,297.0694,282.1241,77.9679,0,U,64586,999,5603,.50979E-3,.5782E-4,0
LEMUR-2-HUBBLE-5,2025-135BT,2026-06-30T22:52:22.466784,14.94178004,.0004141,97.7730,296.3495,299.7241,60.3567,0,U,64840,999,5596,.14649E-3,.1511E-4,0
LEMUR-2-KARENDARRELL,2025-135BU,2026-07-01T01:23:57.931296,15.00316602,.0010984,97.7694,298.2440,150.8526,209.3313,0,U,64841,999,5609,.79255E-3,.9897E-4,0
LEMUR-2-LUCILLE-ROSE,2025-135BV,2026-07-01T00:45:42.677280,15.00325878,.0012971,97.7744,298.2494,233.6599,126.3428,0,U,65403,999,5071,.69396E-3,.8663E-4,0
LEMUR-2-AFFIE-WAUWIE,2025-248C,2026-06-30T23:40:36.681024,15.27729423,.0008059,45.3938,40.1979,175.6111,184.4850,0,U,66295,999,3670,.10177E-2,.27912E-3,0
LEMUR-2-DEANANDMAEVE,2025-276N,2026-07-01T03:23:01.995648,15.19904299,.0004491,97.4212,255.3858,320.0386,40.0518,0,U,66678,999,3253,.40198E-3,.8572E-4,0
LEMUR-2-STAS-GORBUK,2025-276W,2026-06-30T15:10:06.250656,15.19517784,.00037854,97.4246,254.9389,322.2428,37.8541,0,U,66686,999,3245,.27380511E-3,.5749E-4,0
LEMUR-2-TEODOR,2025-276DG,2026-07-01T03:03:17.487072,15.21202126,.0002365,97.4151,255.6801,102.4653,257.6848,0,U,66768,999,3256,.32197E-3,.7115E-4,0
LEMUR-2-LAILA,2025-276DQ,2026-07-01T02:22:47.955360,15.21425052,.0002801,97.4173,255.7819,115.5643,244.5883,0,U,66776,999,3256,.33091E-3,.7363E-4,0
LEMUR-2-CELIJO-SB-PK,2025-276DW,2026-07-01T02:40:37.346304,15.00143238,.0007867,97.5221,252.4310,98.9971,261.2143,0,U,66781,999,2471,.66147E-3,.8209E-4,0
LEMUR-2-FINNIAN,2025-276DX,2026-06-30T22:50:15.832032,15.00487351,.0008527,97.5329,252.5102,48.9900,311.2060,0,U,66782,999,2206,.26337E-3,.3262E-4,0
