LEMUR-2-ROUNDTRIPPER    
1 62711U 25009DG  26181.66705167  .00008736  00000+0  63617-3 0  9998
2 62711  97.7238 264.3280 0005084  99.0849 261.0952 15.04004026 79650
LEMUR-2-MYNAMEISJEFF    
1 62712U 25009DH  26181.66546009  .00008303  00000+0  60505-3 0  9990
2 62712  97.7281 264.7155 0003770 128.3768 231.7797 15.03997260 79651
LEMUR-2-LEIA-PHILIP     
1 63246U 25052AN  26181.63559452  .00001619  00000+0  14442-3 0  9996
2 63246  97.6814  73.3591 0004178 162.8593 197.2771 14.97348750 70683
LEMUR-2-LIA-MARTIN      
1 63248U 25052AQ  26181.97001543  .00005297  00000+0  45442-3 0  9998
2 63248  97.6867  74.1831 0004446 127.6600 232.5027 14.97909830 70741
LEMUR-2-DELOITTE-1      
1 63259U 25052BB  26181.94823468  .00003663  00000+0  31760-3 0  9998
2 63259  97.6905  74.4933 0002638  69.5725 290.5780 14.97695611 70755
LEMUR-2-EMERSONROSE     
1 63261U 25052BD  26181.97663928  .00004831  00000+0  40156-3 0  9994
2 63261  97.6871  75.1041 0002396  78.2574 281.8917 14.99179816 70805
LEMUR-2-MARACHE-FRAN    
1 63262U 25052BE  26181.27547781  .00003860  00000+0  31336-3 0  9997
2 63262  97.6906  74.7579 0004397 326.0371  34.0571 15.00210472 70720
LEMUR-2-THEFALCONER     
1 63264U 25052BG  26181.97666613  .00004318  00000+0  37558-3 0  9993
2 63264  97.6843  74.1253 0001228  21.5725 338.5549 14.97475722 70751
LEMUR-2-UNTITLED-SC     
1 63351U 25061A   26182.17079469  .00003771  00000+0  21324-3 0  9996
2 63351  97.5642 157.4314 0017709 212.0785 147.9370 15.13567173 69709
LEMUR-2-ESPERANZA       
1 63352U 25061B   26181.88265713  .00004132  00000+0  23273-3 0  9990
2 63352  97.5648 157.2420 0017320 212.3694 147.6476 15.13656922 69663
LEMUR-2-KREMPEL-BRO2    
1 63353U 25061C   26182.17002698  .00004071  00000+0  22643-3 0  9997
2 63353  97.5695 158.0786 0018464 203.5396 156.4992 15.14097419 69720
LEMUR-2-THERMORAPTOR    
1 63354U 25061D   26182.21743837  .00004977  00000+0  27535-3 0  9990
2 63354  97.5700 158.2041 0018231 202.3147 157.7293 15.14181266 69730
LEMUR-2-NEUROSPICY      
1 63355U 25061E   26181.98979918  .00004233  00000+0  23423-3 0  9992
2 63355  97.5626 157.5933 0015973 205.9367 154.1066 15.14296100 69703
LEMUR-2-TILLINFINITY    
1 63356U 25061F   26182.21790444  .00004919  00000+0  26700-3 0  9997
2 63356  97.5614 158.1204 0017564 193.3773 166.6996 15.14881552 69765
LEMUR-2-KREMPEL-BRO1    
1 63357U 25061G   26181.73073682  .00003679  00000+0  20169-3 0  9997
2 63357  97.5614 157.5480 0018143 196.4518 163.6128 15.14682929 69682
LEMUR-2-LANGER2SPACE    
1 63358U 25061H   26182.02425281  .00004575  00000+0  25226-3 0  9992
2 63358  97.5617 157.6482 0015902 204.1968 155.8518 15.14380964 69719
LEMUR-2-BALTO           
1 63395U 25052BH  26181.66036695  .00005641  00000+0  45533-3 0  9997
2 63395  97.6926  75.1140 0006267  20.9553 339.1926 15.00231322 70784
LEMUR-2-KRISH           
1 64561U 25135AK  26182.05114051  .00005714  00000+0  51017-3 0  9997
2 64561  97.7754 296.8324 0001272 107.5828 252.5532 14.96328215 55993
LEMUR-2-HUBBLE-4        
1 64565U 25135AP  26181.73819845  .00001887  00000+0  18400-3 0  9994
2 64565  97.7709 295.4832 0001417 207.6589 152.4556 14.93649063 55890
LEMUR-2-SEJONG-2        
1 64586U 25135BL  26182.14348862  .00005782  00000+0  50979-3 0  9994
2 64586  97.7715 297.0694 0002689 282.1241  77.9679 14.96815820 56032
LEMUR-2-HUBBLE-5        
1 64840U 25135BT  26181.95303781  .00001511  00000+0  14649-3 0  9996
2 64840  97.7730 296.3495 0004141 299.7241  60.3567 14.94178004 55969
LEMUR-2-KARENDARRELL    
1 64841U 25135BU  26182.05830939  .00009897  00000+0  79255-3 0  9998
2 64841  97.7694 298.2440 0010984 150.8526 209.3313 15.00316602 56090
LEMUR-2-LUCILLE-ROSE    
1 65403U 25135BV  26182.03174395  .00008663  00000+0  69396-3 0  9993
2 65403  97.7744 298.2494 0012971 233.6599 126.3428 15.00325878 50711
LEMUR-2-AFFIE-WAUWIE    
1 66295U 25248C   26181.98653566  .00027912  00000+0  10177-2 0  9993
2 66295  45.3938  40.1979 0008059 175.6111 184.4850 15.27729423 36704
LEMUR-2-DEANANDMAEVE    
1 66678U 25276N   26182.14099532  .00008572  00000+0  40198-3 0  9993
2 66678  97.4212 255.3858 0004491 320.0386  40.0518 15.19904299 32536
LEMUR-2-STAS-GORBUK     
1 66686U 25276W   26181.63201679  .00005749  00000+0  27381-3 0  9994
2 66686  97.4246 254.9389 0003785 322.2428  37.8541 15.19517784 32452
LEMUR-2-TEODOR          
1 66768U 25276DG  26182.12728573  .00007115  00000+0  32197-3 0  9997
2 66768  97.4151 255.6801 0002365 102.4653 257.6848 15.21202126 32564
LEMUR-2-LAILA           
1 66776U 25276DQ  26182.09916615  .00007363  00000+0  33091-3 0  9997
2 66776  97.4173 255.7819 0002801 115.5643 244.5883 15.21425052 32565
LEMUR-2-CELIJO-SB-PK    
1 66781U 25276DW  26182.11154336  .00008209  00000+0  66147-3 0  9998
2 66781  97.5221 252.4310 0007867  98.9971 261.2143 15.00143238 24714
LEMUR-2-FINNIAN         
1 66782U 25276DX  26181.95157213  .00003262  00000+0  26337-3 0  9998
2 66782  97.5329 252.5102 0008527  48.9900 311.2060 15.00487351 22062
